satname,norad_id,inclination_deg,eccentricity,mean_motion_rev_per_day,perigee_km,apogee_km,l1,l2
STARLINK-1316,45415,53.1557,0.0005092,15.39347316,444.56228243345777,451.51405922743197,1 45415U 20019BH  26164.86343197  .00046653  00000+0  11793-2 0  9997,2 45415  53.1557  39.5135 0005092 100.1096 260.0483 15.39347316344765
STARLINK-1286,45417,53.0463,0.000166,15.647971,372.7015346711396,374.94318517863485,1 45417U 20019BK  26164.87099780  .00056292  00000+0  56880-3 0  9993,2 45417  53.0463  24.7959 0001660 239.6042 120.4808 15.64797100345206
STARLINK-1308,45419,53.0465,0.0007018,15.66406637,364.4610410815194,373.93159812891827,1 45419U 20019BM  26164.82737811  .00049305  00000+0  46780-3 0  9999,2 45419  53.0465  44.3432 0007018  66.8597 293.3157 15.66406637344673
STARLINK-1329,45531,53.0433,0.0001818,15.74099483,345.9722633657839,348.4175940550631,1 45531U 20025A   26164.72626936  .00074597  00000+0  51102-3 0  9990,2 45531  53.0433 328.2285 0001818 187.1425 172.9567 15.74099483340514
STARLINK-1338,45532,53.044,0.0001986,15.68508259,361.82904548676015,364.5066917805816,1 45532U 20025B   26164.77189123  .00056138  00000+0  48857-3 0  9992,2 45532  53.0440 334.8849 0001986 111.8718 248.2509 15.68508259340429
STARLINK-1350,45535,53.0729,0.0001362,15.38362787,450.0201714015475,451.8804147801857,1 45535U 20025E   26164.68498904  .00011163  00000+0  30063-3 0  9994,2 45535  53.0729 301.5094 0001362  66.5276 293.5870 15.38362787340928
STARLINK-1362,45538,53.1571,0.0002844,15.3792649,450.2992426129158,454.184362075689,1 45538U 20025H   26164.84599615  .00042877  00000+0  11368-2 0  9998,2 45538  53.1571  12.0261 0002844 190.2227 169.8719 15.37926490339936
STARLINK-1368,45540,53.1579,0.0003544,15.3799538,449.61722231296153,454.45845023691254,1 45540U 20025K   26164.85881792  .00047757  00000+0  12614-2 0  9999,2 45540  53.1579  12.3303 0003544 160.1370 199.9773 15.37995380339927
STARLINK-1371,45542,53.0451,0.0003177,15.63369285,375.7863447723457,380.0791514903085,1 45542U 20025M   26164.76389816  .00095069  00000+0  10073-2 0  9997,2 45542  53.0451 344.8405 0003177 177.4121 182.6910 15.63369285340281
STARLINK-1372,45543,53.1575,0.0002674,15.38491534,448.7433018569336,452.3952939850624,1 45543U 20025N   26164.81552891  .00053846  00000+0  13971-2 0  9996,2 45543  53.1575  12.0114 0002674 148.7163 211.4000 15.38491534339025
STARLINK-1373,45544,53.0454,0.0002123,15.70497598,356.043918175591,358.9038585587923,1 45544U 20025P   26164.78312573  .00062207  00000+0  49786-3 0  9999,2 45544  53.0454 339.9902 0002123  78.5009 281.6246 15.70497598340356
STARLINK-1327,45555,53.0414,0.0003267,15.67818212,362.94273584477105,367.3487968042873,1 45555U 20025AA  26164.70783770  .00053468  00000+0  47894-3 0  9991,2 45555  53.0414 317.6325 0003267  80.7511 279.3873 15.67818212340658
STARLINK-1356,45564,53.0427,0.0001046,15.65703192,370.51116399954844,371.92312888698507,1 45564U 20025AK  26164.83335647 -.00009060  00000+0 -82735-4 0  9996,2 45564  53.0427 330.2637 0001046 339.3682 202.0326 15.65703192  5870
STARLINK-1357,45565,53.0446,0.000338,15.70181961,356.09957543003384,360.65345856752447,1 45565U 20025AL  26164.62639274  .00062246  00000+0  50467-3 0  9996,2 45565  53.0446 287.8227 0003380 123.8704 236.2634 15.70181961341074
STARLINK-1361,45567,53.0425,0.0003049,15.63807961,374.6096833309157,378.7287641661569,1 45567U 20025AN  26164.80520352  .00108145  00000+0  11237-2 0  9994,2 45567  53.0425 328.7928 0003049 295.4700  64.5998 15.63807961340510
STARLINK-1376,45570,53.1571,0.0003049,15.3883638,447.46731100687794,451.63083397388255,1 45570U 20025AR  26164.79111690  .00050895  00000+0  13068-2 0  9999,2 45570  53.1571 348.5127 0003049 134.8072 225.3181 15.38836380340257
STARLINK-1320,45572,53.0396,0.0009513,15.88694512,299.5834901567596,312.3006189659691,1 45572U 20025AT  26164.83335647  .00144759  18558-4  51380-3 0  9991,2 45572  53.0396 225.0319 0009513 356.1608 253.3859 15.88694512  6044
STARLINK-1321,45573,53.0424,0.0001305,15.64678524,373.28230280114803,375.0446532259102,1 45573U 20025AU  26164.87459685  .00046247  00000+0  47108-3 0  9999,2 45573  53.0424 312.3042 0001305 243.3750 116.7131 15.64678524340445
STARLINK-1331,45578,53.0457,7.38e-05,15.64518014,374.12694613921394,375.12365385469366,1 45578U 20025AZ  26164.83526684  .00080264  00000+0  81530-3 0  9998,2 45578  53.0457 319.4145 0000738 134.7881 225.3193 15.64518014340650
STARLINK-1333,45580,53.1573,9.44e-05,15.35798634,457.90397714021947,459.1947435250504,1 45580U 20025BB  26164.78523301  .00038241  00000+0  10877-2 0  9991,2 45580  53.1573 350.1833 0000944 190.8041 169.2942 15.35798634340237
STARLINK-1335,45581,53.1539,0.0003161,15.37539632,451.2280302075742,455.5469199807285,1 45581U 20025BC  26164.80843058  .00034222  00000+0  92192-3 0  9995,2 45581  53.1539 346.7179 0003161 155.9607 204.1545 15.37539632340273
STARLINK-1337,45582,53.0449,0.0003023,15.75419901,341.404638050225,345.4685014304896,1 45582U 20025BD  26164.84529295  .00083360  00000+0  53821-3 0  9997,2 45582  53.0449 308.2416 0003023 108.9546 251.1800 15.75419901340798
STARLINK-1347,45586,53.0386,8.17e-05,15.69257491,360.47137983364246,361.572558409197,1 45586U 20025BH  26164.60320084  .00058634  00000+0  49449-3 0  9997,2 45586  53.0386 280.1790 0000817 128.8389 231.2700 15.69257491341166
STARLINK-1364,45589,53.0431,9.52e-05,15.70024814,358.1846649127119,359.4673826724429,1 45589U 20025BL  26164.67171255  .00057986  00000+0  47386-3 0  9998,2 45589  53.0431 316.5087 0000952 324.3025  35.7928 15.70024814340669
STARLINK-1365,45590,53.045,0.0001255,15.60264154,386.04441157405654,387.7424342102031,1 45590U 20025BM  26164.76803440  .00166881  00000+0  19717-2 0  9999,2 45590  53.0450 350.6134 0001255 123.5791 236.5341 15.60264154340213
STARLINK-1443,45660,53.1346,0.0002325,15.33045484,465.1406790790588,468.3235432157426,1 45660U 20035D   26164.79181417  .00042733  00000+0  13240-2 0  9998,2 45660  53.1346 338.9655 0002325  92.9789 267.1479 15.33045484333462
STARLINK-1446,45663,53.0229,0.0001369,15.47999204,421.6487181461107,423.5107543885006,1 45663U 20035G   26164.53510586  .00028685  00000+0  54623-3 0  9997,2 45663  53.0229 262.4761 0001369 226.6706 133.4186 15.47999204334492
STARLINK-1448,45665,53.0435,0.0003722,15.69003625,359.2402980827346,364.25746913449257,1 45665U 20035J   26164.83085558  .00060357  00000+0  51399-3 0  9997,2 45665  53.0435 303.1311 0003722 102.6474 257.4958 15.69003625333947
STARLINK-1451,45668,53.0513,0.0001629,15.14523978,521.299999200367,523.5482020069439,1 45668U 20035M   26164.83441198  .00026708  00000+0  14437-2 0  9999,2 45668  53.0513 350.4394 0001629 138.2474 221.8643 15.14523978333294
STARLINK-1452,45669,53.0258,0.0004914,15.59984776,384.37636641965764,391.02583210361263,1 45669U 20035N   26164.61884272  .00086656  00000+0  10478-2 0  9999,2 45669  53.0258 279.6703 0004914 329.8339  30.2389 15.59984776334268
STARLINK-1453,45670,53.0399,0.0002051,15.6972204,358.31036797990237,361.0742255574378,1 45670U 20035P   26164.79628647  .00067159  00000+0  55434-3 0  9991,2 45670  53.0399 263.5619 0002051 331.0658  29.0244 15.69722040334398
STARLINK-1454,45671,53.0435,0.0002345,15.67368402,364.85424612577845,368.0174507917045,1 45671U 20035Q   26164.65015084  .00056627  00000+0  51613-3 0  9995,2 45671  53.0435 305.3165 0002345  36.3863 323.7311 15.67368402333899
STARLINK-1456,45673,53.0426,0.0002893,15.66203625,367.8271963382622,371.73154074910144,1 45673U 20035S   26164.62198225  .00049141  00000+0  47053-3 0  9999,2 45673  53.0426 300.0829 0002893 182.2098 177.8905 15.66203625333980
STARLINK-1458,45675,53.046,0.0001241,15.58196166,392.0373711205066,393.7179369576397,1 45675U 20035U   26164.67630439  .00092156  00000+0  11916-2 0  9996,2 45675  53.0460 314.7721 0001241  14.6153 345.4894 15.58196166333745
STARLINK-1460,45676,53.1572,0.0002233,15.35630179,457.5225863711512,460.5760737861656,1 45676U 20035V   26164.76155943  .00048228  00000+0  13745-2 0  9992,2 45676  53.1572 337.4864 0002233 198.4287 161.6635 15.35630179333442
STARLINK-1392,45677,53.1526,0.0002109,15.38958064,447.7492787505007,450.629044925563,1 45677U 20035W   26164.76678863  .00051733  00000+0  13228-2 0  9995,2 45677  53.1526 335.9538 0002109 225.5394 134.5438 15.38958064333502
STARLINK-1394,45679,53.0408,0.0003039,15.65844492,368.7600990543733,372.8621097122186,1 45679U 20035Y   26164.62629228  .00048132  00000+0  46769-3 0  9999,2 45679  53.0408 290.3601 0003039 199.1848 160.9053 15.65844492334113
STARLINK-1402,45685,53.0413,0.000382,15.58666128,388.93053405945557,394.1025493653251,1 45685U 20035AE  26164.59641539  .00101808  00000+0  12908-2 0  9998,2 45685  53.0413 281.6357 0003820 228.3806 131.6879 15.58666128334249
STARLINK-1404,45686,53.1578,0.0001957,15.45342608,429.0391472085512,431.7039974637628,1 45686U 20035AF  26164.73622888  .00057079  00000+0  11778-2 0  9995,2 45686  53.1578 317.4772 0001957 248.8202 111.2596 15.45342608333764
STARLINK-1413,45689,53.156,0.0001777,15.3556838,458.01777009926536,460.44777131577484,1 45689U 20035AJ  26164.73561455  .00046891  00000+0  13396-2 0  9998,2 45689  53.1560 322.2537 0001777 243.9004 116.1817 15.35568380333617
STARLINK-1417,45693,53.0498,0.0004604,15.1716697,511.2343285522784,517.5809836716262,1 45693U 20035AN  26164.79123102  .00030171  00000+0  15103-2 0  9994,2 45693  53.0498 337.1881 0004604 159.6490 200.4688 15.17166970333467
STARLINK-1420,45695,53.0456,0.0002301,15.68873492,360.5706461657346,363.6725131640969,1 45695U 20035AQ  26164.56555416  .00056117  00000+0  48113-3 0  9994,2 45695  53.0456 273.7146 0002301 134.9529 225.1674 15.68873492334340
STARLINK-1422,45696,53.1557,0.0001626,15.35572577,458.10855788356366,460.3320664814855,1 45696U 20035AR  26164.73900514  .00048735  00000+0  13913-2 0  9993,2 45696  53.1557 322.1925 0001626 218.2298 141.8590 15.35572577333698
